{"type":"FeatureCollection","name":"infile","crs":{"type":"name","properties":{"name":"urn:ogc:def:crs:OGC:1.3:CRS84"}},"features":[{"type":"Feature","properties":{"Station":"Balbriggan","Address1":"Drogheda Road","Address2":"Balbriggan","Address3":"Co. Dublin ","Phone":"(01)6664500","Website":"https://www.garda.ie/en/contact-us/station-directory/"},"geometry":{"type":"Point","coordinates":[-6.191172,53.61433]}},{"type":"Feature","properties":{"Station":"Ballyfermot","Address1":"Rossmore Avenue","Address2":"Ballyfermot, Dublin 20","Address3":"Co. Dublin ","Phone":"(01)6667200","Website":"https://www.garda.ie/en/contact-us/station-directory/"},"geometry":{"type":"Point","coordinates":[-6.357991,53.34476]}},{"type":"Feature","properties":{"Station":"Ballymun","Address1":"Main Street ","Address2":"Ballymun, Dublin 9","Address3":"Co. Dublin ","Phone":"(01)6664400","Website":"https://www.garda.ie/en/contact-us/station-directory/"},"geometry":{"type":"Point","coordinates":[-6.26371,53.394531]}},{"type":"Feature","properties":{"Station":"Blackrock ","Address1":"15 Sweetman's Avenue","Address2":"Blackrock ","Address3":"Co. Dublin ","Phone":"(01)6665200","Website":"https://www.garda.ie/en/contact-us/station-directory/"},"geometry":{"type":"Point","coordinates":[-6.177504,53.299805]}},{"type":"Feature","properties":{"Station":"Blanchardstown","Address1":"Main Street ","Address2":"Blanchardtown, Dublin 15","Address3":"Co. Dublin ","Phone":"(01)6667000","Website":"https://www.garda.ie/en/contact-us/station-directory/"},"geometry":{"type":"Point","coordinates":[-6.380975,53.38992]}},{"type":"Feature","properties":{"Station":"Bridewell","Address1":"28/30 Chancery Street","Address2":"Smithfield, Dublin 7","Address3":"Co. Dublin ","Phone":"(01)6668200","Website":"https://www.garda.ie/en/contact-us/station-directory/"},"geometry":{"type":"Point","coordinates":[-6.27413,53.34708]}},{"type":"Feature","properties":{"Station":"Cabinteely","Address1":"Bray Road ","Address2":"Cabinteely, Dublin 18","Address3":"Co. Dublin ","Phone":"(01)6665400","Website":"https://www.garda.ie/en/contact-us/station-directory/"},"geometry":{"type":"Point","coordinates":[-6.150651,53.260789]}},{"type":"Feature","properties":{"Station":"Cabra","Address1":"Navan Road","Address2":"Dublin 7 ","Address3":"Co. Dublin ","Phone":"(01)6667400","Website":"https://www.garda.ie/en/contact-us/station-directory/"},"geometry":{"type":"Point","coordinates":[-6.30764,53.364985]}},{"type":"Feature","properties":{"Station":"Clondalkin ","Address1":"Orchard Lane ","Address2":"Clondalkin, Dublin 22","Address3":"Co. Dublin ","Phone":"(01)6667600","Website":"https://www.garda.ie/en/contact-us/station-directory/"},"geometry":{"type":"Point","coordinates":[-6.394958,53.323146]}},{"type":"Feature","properties":{"Station":"Clontarf","Address1":"Strandville Avenue East","Address2":"Clontarf, Dublin 3","Address3":"Co. Dublin ","Phone":"(01) 6664800","Website":"https://www.garda.ie/en/contact-us/station-directory/"},"geometry":{"type":"Point","coordinates":[-6.220152,53.363544]}},{"type":"Feature","properties":{"Station":"Coolock ","Address1":"Oscar Traynor Road","Address2":"Coolock, Dublin 5","Address3":"Co. Dublin ","Phone":"(01) 6664200","Website":"https://www.garda.ie/en/contact-us/station-directory/"},"geometry":{"type":"Point","coordinates":[-6.201099,53.390335]}},{"type":"Feature","properties":{"Station":"Crumlin ","Address1":"23 Saint Agnes Road","Address2":"Crumlin, Dublin 12","Address3":"Co. Dublin ","Phone":"(01) 6666200","Website":"https://www.garda.ie/en/contact-us/station-directory/"},"geometry":{"type":"Point","coordinates":[-6.315017,53.319567]}},{"type":"Feature","properties":{"Station":"Donnybrook ","Address1":"43 Donnybrook Road","Address2":"Dublin 4","Address3":"Co. Dublin ","Phone":"(01) 6669200","Website":"https://www.garda.ie/en/contact-us/station-directory/"},"geometry":{"type":"Point","coordinates":[-6.235914,53.321731]}},{"type":"Feature","properties":{"Station":"Dublin Airport ","Address1":"Terminal Complex","Address2":"Dublin Airport, Swords","Address3":"Co. Dublin ","Phone":"(01) 6664950","Website":"https://www.garda.ie/en/contact-us/station-directory/"},"geometry":{"type":"Point","coordinates":[-6.24501,53.429782]}},{"type":"Feature","properties":{"Station":"Dun Laoghaire ","Address1":"Corrig Avenue","Address2":"Dun Laoghaire","Address3":"Co. Dublin ","Phone":"(01) 6665000","Website":"https://www.garda.ie/en/contact-us/station-directory/"},"geometry":{"type":"Point","coordinates":[-6.133347,53.289915]}},{"type":"Feature","properties":{"Station":"Dundrum","Address1":"Dundrum","Address2":"Dublin 14","Address3":"Co. Dublin ","Phone":"(01) 6665600","Website":"https://www.garda.ie/en/contact-us/station-directory/"},"geometry":{"type":"Point","coordinates":[-6.242572,53.289544]}},{"type":"Feature","properties":{"Station":"Finglas","Address1":"Mellowes Road","Address2":"Finglas West, Dublin 11","Address3":"Co. Dublin ","Phone":"(01) 6667500","Website":"https://www.garda.ie/en/contact-us/station-directory/"},"geometry":{"type":"Point","coordinates":[-6.306919,53.389651]}},{"type":"Feature","properties":{"Station":"Fitzgibbon Street","Address1":"23-28 Fitzgibbon Street","Address2":"Dublin 14","Address3":"Co. Dublin ","Phone":"(01) 6668400","Website":"https://www.garda.ie/en/contact-us/station-directory/"},"geometry":{"type":"Point","coordinates":[-6.255359,53.357735]}},{"type":"Feature","properties":{"Station":"Garristown","Address1":"Main Street ","Address2":"Garristown","Address3":"Co. Dublin ","Phone":"(01) 8354112","Website":"https://www.garda.ie/en/contact-us/station-directory/"},"geometry":{"type":"Point","coordinates":[-6.383903,53.567052]}},{"type":"Feature","properties":{"Station":"Howth","Address1":"8 Dunbo Hill","Address2":"Howth","Address3":"Co. Dublin ","Phone":"(01) 6664900","Website":"https://www.garda.ie/en/contact-us/station-directory/"},"geometry":{"type":"Point","coordinates":[-6.069001,53.387287]}},{"type":"Feature","properties":{"Station":"Irishown","Address1":"Irishtown Road","Address2":"Irishtown Road, Dublin 4","Address3":"Co. Dublin ","Phone":"(01) 6669600","Website":"https://www.garda.ie/en/contact-us/station-directory/"},"geometry":{"type":"Point","coordinates":[-6.22304,53.338063]}},{"type":"Feature","properties":{"Station":"Kevin Street ","Address1":"Kevin Street upper","Address2":"Dublin 8","Address3":"Co. Dublin ","Phone":"(01) 6669400","Website":"https://www.garda.ie/en/contact-us/station-directory/"},"geometry":{"type":"Point","coordinates":[-6.270248,53.338982]}},{"type":"Feature","properties":{"Station":"Kilmainham","Address1":" Kilmainham Lane","Address2":"Dublin 8","Address3":"Co. Dublin ","Phone":"(01) 6669700","Website":"https://www.garda.ie/en/contact-us/station-directory/"},"geometry":{"type":"Point","coordinates":[-6.304273,53.341869]}},{"type":"Feature","properties":{"Station":"Lucan","Address1":"Leixlip Road ","Address2":"Lucan","Address3":"Co. Dublin ","Phone":"(01)6667300","Website":"https://www.garda.ie/en/contact-us/station-directory/"},"geometry":{"type":"Point","coordinates":[-6.45068,53.356052]}},{"type":"Feature","properties":{"Station":"Lusk","Address1":"Dublin Road ","Address2":"Lusk ","Address3":"Co. Dublin ","Phone":"(01) 8437222","Website":"https://www.garda.ie/en/contact-us/station-directory/"},"geometry":{"type":"Point","coordinates":[-6.167335,53.523431]}},{"type":"Feature","properties":{"Station":"Malahide","Address1":"1/2 James's Terrace","Address2":"Malahide","Address3":"Co. Dublin ","Phone":"(01) 6664600","Website":"https://www.garda.ie/en/contact-us/station-directory/"},"geometry":{"type":"Point","coordinates":[-6.151959,53.451162]}},{"type":"Feature","properties":{"Station":"Mountjy","Address1":"399 North Circular Road","Address2":"Dublin 7 ","Address3":"Co. Dublin ","Phone":"(01) 6668600","Website":"https://www.garda.ie/en/contact-us/station-directory/"},"geometry":{"type":"Point","coordinates":[-6.266825,53.360484]}},{"type":"Feature","properties":{"Station":"O'Connell Street","Address1":"13A O'Connell Street","Address2":"Dublin 1 ","Address3":"Co. Dublin ","Phone":"(01) 6668000","Website":"https://www.garda.ie/en/contact-us/station-directory/"},"geometry":{"type":"Point","coordinates":[-6.2602,53.3507]}},{"type":"Feature","properties":{"Station":"Pearse Street","Address1":"1-6 Pearse Street","Address2":"Dublin 2","Address3":"Co. Dublin ","Phone":" (01) 6669000","Website":"https://www.garda.ie/en/contact-us/station-directory/"},"geometry":{"type":"Point","coordinates":[-6.256269,53.345702]}},{"type":"Feature","properties":{"Station":"Raheny","Address1":"All Saints Road","Address2":"Raheny, Dublin 5","Address3":"Co. Dublin ","Phone":"(01) 6664300","Website":"https://www.garda.ie/en/contact-us/station-directory/"},"geometry":{"type":"Point","coordinates":[-6.177986,53.378983]}},{"type":"Feature","properties":{"Station":"Rathcoole","Address1":"Main Street ","Address2":"Rathcoole","Address3":"Co. Dublin ","Phone":"(01) 6667900","Website":"https://www.garda.ie/en/contact-us/station-directory/"},"geometry":{"type":"Point","coordinates":[-6.464709,53.281792]}},{"type":"Feature","properties":{"Station":"Rathfarnham","Address1":"Butterfield Avenue","Address2":"Rathfarnham, Dublin 14","Address3":"Co. Dublin ","Phone":"(01) 6666500","Website":"https://www.garda.ie/en/contact-us/station-directory/"},"geometry":{"type":"Point","coordinates":[-6.28815,53.297388]}},{"type":"Feature","properties":{"Station":"Rathmines ","Address1":"Rathgar Road","Address2":"Rathgar Road, Dublin 6","Address3":"Co. Dublin ","Phone":"(01) 6666700","Website":"https://www.garda.ie/en/contact-us/station-directory/"},"geometry":{"type":"Point","coordinates":[-6.267004,53.321317]}},{"type":"Feature","properties":{"Station":"Ronanstown","Address1":"Saint Ronan's Avenue","Address2":"Clondalkin, Dublin 22","Address3":"Co. Dublin ","Phone":"(01) 6667700","Website":"https://www.garda.ie/en/contact-us/station-directory/"},"geometry":{"type":"Point","coordinates":[-6.406023,53.337899]}},{"type":"Feature","properties":{"Station":"Santry ","Address1":"Shanowen Road","Address2":"Santry , Dublin 9","Address3":"Co. Dublin ","Phone":"(01) 6664000","Website":"https://www.garda.ie/en/contact-us/station-directory/"},"geometry":{"type":"Point","coordinates":[-6.251635,53.389728]}},{"type":"Feature","properties":{"Station":"Shankill","Address1":"Dorney Court","Address2":"Shankill, Dublin 18","Address3":"Co. Dublin ","Phone":"(01) 6665900","Website":"https://www.garda.ie/en/contact-us/station-directory/"},"geometry":{"type":"Point","coordinates":[-6.121017,53.233524]}},{"type":"Feature","properties":{"Station":"Skerries  ","Address1":"90 Strand Street","Address2":"Skerries","Address3":"Co. Dublin ","Phone":"(01) 8491211","Website":"https://www.garda.ie/en/contact-us/station-directory/"},"geometry":{"type":"Point","coordinates":[-6.106963,53.579593]}},{"type":"Feature","properties":{"Station":"Stepaside","Address1":"Stepaside","Address2":"Dulbin 18","Address3":"Co. Dublin ","Phone":"(01) 6665700","Website":"https://www.garda.ie/en/contact-us/station-directory/"},"geometry":{"type":"Point","coordinates":[-6.21452,53.253332]}},{"type":"Feature","properties":{"Station":"Store Street","Address1":"4-6 Store Street","Address2":"Dublin 1","Address3":"Co. Dublin ","Phone":"(01) 6668000","Website":"https://www.garda.ie/en/contact-us/station-directory/"},"geometry":{"type":"Point","coordinates":[-6.252246,53.350455]}},{"type":"Feature","properties":{"Station":"Sundrive Road ","Address1":"Crumlin Road","Address2":"Crumlin, Dublin 12","Address3":"Co. Dublin ","Phone":"(01) 6666600","Website":"https://www.garda.ie/en/contact-us/station-directory/"},"geometry":{"type":"Point","coordinates":[-6.298731,53.330191]}},{"type":"Feature","properties":{"Station":"Swords ","Address1":"Main Street ","Address2":"Swards ","Address3":"Co. Dublin ","Phone":"(01) 6664700","Website":"https://www.garda.ie/en/contact-us/station-directory/"},"geometry":{"type":"Point","coordinates":[-6.221116,53.456023]}},{"type":"Feature","properties":{"Station":"Tallaght ","Address1":"Belgard Road East","Address2":"Tallaght, Dublin 24","Address3":"Co. Dublin ","Phone":"(01) 6666000","Website":"https://www.garda.ie/en/contact-us/station-directory/"},"geometry":{"type":"Point","coordinates":[-6.367838,53.286801]}},{"type":"Feature","properties":{"Station":"Terenure ","Address1":"30/32 Terenure Road West","Address2":"Terenure, Dublin 6W","Address3":"Co. Dublin ","Phone":"(01) 6666400","Website":"https://www.garda.ie/en/contact-us/station-directory/"},"geometry":{"type":"Point","coordinates":[-6.288029,53.309815]}}]}